ONEWEB-0275             
1 48993U 21060AC  26188.06463240 -.00000010  00000+0 -59659-4 0  9992
2 48993  87.9081 224.8279 0001973  96.1703 263.9653 13.16595199242177
ONEWEB-0276             
1 48994U 21060AD  26188.17388208  .00000114  00000+0  26550-3 0  9991
2 48994  87.9082 224.8052 0001902  93.3517 266.7831 13.16593410242209
ONEWEB-0277             
1 48995U 21060AE  26188.03456418  .00000064  00000+0  13282-3 0  9998
2 48995  87.9078 224.8406 0002083  99.5011 260.6355 13.16594865242171
ONEWEB-0278             
1 48996U 21060AF  26188.10105244  .00000077  00000+0  16733-3 0  9993
2 48996  87.9081 224.8192 0002254  91.3886 268.7504 13.16593763242315
ONEWEB-0279             
1 48997U 21060AG  26187.65298576 -.00000010  00000+0 -59590-4 0  9992
2 48997  87.9083 224.9060 0001914 100.4215 259.7132 13.16593929242189
ONEWEB-0280             
1 48998U 21060AH  26187.59202959 -.00000031  00000+0 -11377-3 0  9999
2 48998  87.9082 224.9225 0002394  99.0421 261.0981 13.16594545242113
ONEWEB-0281             
1 48999U 21060AJ  26188.66152561 -.00000024  00000+0 -95875-4 0  9990
2 48999  87.9082 224.7054 0002146  93.7077 266.4299 13.16593576242322
ONEWEB-0282             
1 49000U 21060AK  26188.08363638  .00000054  00000+0  10806-3 0  9990
2 49000  87.9078 224.8280 0002140  99.0693 261.0680 13.16594409242220
ONEWEB-0283             
1 49001U 21060AL  26188.07254268  .00000048  00000+0  92160-4 0  9995
2 49001  87.9078 224.8297 0001968  98.8153 261.3201 13.16593034242230
ONEWEB-0284             
1 49002U 21060AM  26187.61024007  .00000026  00000+0  35284-4 0  9991
2 49002  87.9080 224.9153 0002387  95.6619 264.4784 13.16593553242151
ONEWEB-0285             
1 49075U 21075A   26188.41560458  .00000242  00000+0  63781-3 0  9993
2 49075  87.8964 346.6396 0001810  87.0634 273.0702 13.12444483237865
ONEWEB-0286             
1 49076U 21075B   26188.39766389 -.00000306  00000+0 -88459-3 0  9994
2 49076  87.8952 346.6581 0001816  87.6624 272.4712 13.12442710237214
ONEWEB-0287             
1 49077U 21075C   26188.44160012  .00000018  00000+0  12766-4 0  9999
2 49077  87.9136   1.8356 0002061  80.5509 279.5856 13.17647767236295
ONEWEB-0288             
1 49078U 21075D   26188.37407955 -.00000017  00000+0 -82034-4 0  9998
2 49078  87.8961 346.6409 0002022  89.0690 271.0670 13.12440872237837
ONEWEB-0289             
1 49079U 21075E   26188.48033176 -.00001949  00000+0 -50571-2 0  9995
2 49079  87.9144   1.8462 0002130  99.1236 261.0137 13.17624438236876
ONEWEB-0290             
1 49080U 21075F   26188.75717029  .00000090  00000+0  19787-3 0  9992
2 49080  87.9146   1.7633 0002293  99.8189 260.3202 13.17650477236320
